{
    "CCSDS_OMM_VERS": "3.0",
    "COMMENT": "GENERATED VIA SPACE-TRACK.ORG API",
    "CREATION_DATE": "2025-11-23T21:08:43",
    "ORIGINATOR": "18 SPCS",
    "OBJECT_NAME": "COSMOS 2478 (GLONASS)",
    "OBJECT_ID": "2011-071A",
    "CENTER_NAME": "EARTH",
    "REF_FRAME": "TEME",
    "TIME_SYSTEM": "UTC",
    "MEAN_ELEMENT_THEORY": "SGP4",
    "EPOCH": "2025-11-22T20:42:19.242144",
    "MEAN_MOTION": "2.13015645",
    "ECCENTRICITY": "0.00181141",
    "INCLINATION": "65.5826",
    "RA_OF_ASC_NODE": "321.8251",
    "ARG_OF_PERICENTER": "223.6902",
    "MEAN_ANOMALY": "133.0579",
    "EPHEMERIS_TYPE": "0",
    "CLASSIFICATION_TYPE": "U",
    "NORAD_CAT_ID": "37938",
    "ELEMENT_SET_NO": "999",
    "REV_AT_EPOCH": "10874",
    "BSTAR": "0.00000000000000",
    "MEAN_MOTION_DOT": "-0.00000034",
    "MEAN_MOTION_DDOT": "0.0000000000000",
    "SEMIMAJOR_AXIS": "25514.918",
    "PERIOD": "676.007",
    "APOAPSIS": "19183.001",
    "PERIAPSIS": "19090.565",
    "OBJECT_TYPE": "PAYLOAD",
    "RCS_SIZE": "LARGE",
    "COUNTRY_CODE": "CIS",
    "LAUNCH_DATE": "2011-11-28",
    "SITE": "PKMTR",
    "DECAY_DATE": null,
    "FILE": "4896238",
    "GP_ID": "303330994",
    "TLE_LINE0": "0 COSMOS 2478 (GLONASS)",
    "TLE_LINE1": "1 37938U 11071A   25326.86272271 -.00000034  00000-0  00000-0 0  9991",
    "TLE_LINE2": "2 37938  65.5826 321.8251 0018114 223.6902 133.0579  2.13015645108740"
}